NORAD_CAT_ID,OBJECT_NAME,OBJECT_TYPE,EPOCH,MEAN_MOTION,ECCENTRICITY,INCLINATION,RA_OF_ASC_NODE,ARG_OF_PERICENTER,MEAN_ANOMALY,BSTAR,MEAN_MOTION_DOT,MEAN_MOTION_DDOT,TLE_LINE0,TLE_LINE1,TLE_LINE2,SEMIMAJOR_AXIS,PERIOD,APOGEE,PERIGEE,DECAYED
55924.0,STARLINK-5849,PAYLOAD,2024-03-31 13:13:44,14.98329518,0.0002888,69.9994,270.0927,270.2883,89.7945,-1.7274e-05,-2.99e-06,0.0,0 STARLINK-5849,1 55924U 23037L   24091.55121327 -.00000299  00000-0 -17274-4 0  9999,2 55924  69.9994 270.0927 0002888 270.2883  89.7945 14.98329518 58247,6950.194,96.107,574.067,570.052,0.0
55924.0,STARLINK-5849,PAYLOAD,2024-03-31 14:49:52,14.98329075,0.0002898,69.9994,269.9244,269.8071,90.2756,-2.1065e-05,-3.44e-06,0.0,0 STARLINK-5849,1 55924U 23037L   24091.61797359 -.00000344  00000-0 -21065-4 0  9994,2 55924  69.9994 269.9244 0002898 269.8071  90.2756 14.98329075 57918,6950.196,96.107,574.075,570.047,0.0
55924.0,STARLINK-5849,PAYLOAD,2024-03-31 21:14:25,14.98329373,0.0002921,69.9994,269.251,269.0021,91.0804,-1.3421e-05,-2.53e-06,0.0,0 STARLINK-5849,1 55924U 23037L   24091.88501312 -.00000253  00000-0 -13421-4 0  9991,2 55924  69.9994 269.2510 0002921 269.0021  91.0804 14.98329373 57959,6950.195,96.107,574.09,570.03,0.0
55924.0,STARLINK-5849,PAYLOAD,2024-04-01 13:15:45,14.98327699,0.0003006,69.9992,267.5671,269.1147,90.9667,2.3815e-05,1.91e-06,0.0,0 STARLINK-5849,1 55924U 23037L   24092.55261335  .00000191  00000-0  23815-4 0  9991,2 55924  69.9992 267.5671 0003006 269.1147  90.9667 14.98327699 58394,6950.2,96.107,574.154,569.976,0.0
55924.0,STARLINK-5849,PAYLOAD,2024-04-02 13:17:46,14.98330208,0.0003056,69.999,265.0416,268.8639,91.217,6.2638e-06,-1.8e-07,0.0,0 STARLINK-5849,1 55924U 23037L   24093.55401247 -.00000018  00000-0  62638-5 0  9996,2 55924  69.9990 265.0416 0003056 268.8639  91.2170 14.98330208 58549,6950.192,96.107,574.181,569.933,0.0
55924.0,STARLINK-5849,PAYLOAD,2024-04-02 21:18:26,14.98331476,0.0003082,69.9991,264.2005,269.8338,90.2468,2.4296e-05,1.97e-06,0.0,0 STARLINK-5849,1 55924U 23037L   24093.88781099  .00000197  00000-0  24296-4 0  9992,2 55924  69.9991 264.2005 0003082 269.8338  90.2468 14.98331476 58256,6950.188,96.107,574.195,569.911,0.0
55924.0,STARLINK-5849,PAYLOAD,2024-04-03 13:19:47,14.98330858,0.0003093,69.999,262.5172,269.7586,90.3218,1.9734e-05,1.42e-06,0.0,0 STARLINK-5849,1 55924U 23037L   24094.55541080  .00000142  00000-0  19734-4 0  9992,2 55924  69.9990 262.5172 0003093 269.7586  90.3218 14.98330858 58355,6950.19,96.107,574.205,569.906,0.0
55924.0,STARLINK-5849,PAYLOAD,2024-04-03 18:08:11,14.98332948,0.0003123,69.999,262.0122,270.0105,90.0696,2.5276e-05,2.09e-06,0.0,0 STARLINK-5849,1 55924U 23037L   24094.75568908  .00000209  00000-0  25276-4 0  9994,2 55924  69.9990 262.0122 0003123 270.0105  90.0696 14.98332948 58721,6950.184,96.107,574.219,569.878,0.0
55924.0,STARLINK-5849,PAYLOAD,2024-04-03 19:44:19,14.98332699,0.0003135,69.999,261.844,270.1076,89.9724,2.1308e-05,1.61e-06,0.0,0 STARLINK-5849,1 55924U 23037L   24094.82244923  .00000161  00000-0  21308-4 0  9999,2 55924  69.9990 261.8440 0003135 270.1076  89.9724 14.98332699 58397,6950.185,96.107,574.228,569.871,0.0
55924.0,STARLINK-5849,PAYLOAD,2024-04-04 13:21:48,14.9832759,0.0003065,69.9993,259.9923,270.7659,89.3149,-3.1237e-05,-4.66e-06,0.0,0 STARLINK-5849,1 55924U 23037L   24095.55681349 -.00000466  00000-0 -31237-4 0  9999,2 55924  69.9993 259.9923 0003065 270.7659  89.3149 14.98327590 58848,6950.2,96.107,574.196,569.935,0.0
55924.0,STARLINK-5849,PAYLOAD,2024-04-04 14:57:56,14.98327731,0.0003063,69.9993,259.824,270.7818,89.299,-2.9728e-05,-4.48e-06,0.0,0 STARLINK-5849,1 55924U 23037L   24095.62357341 -.00000448  00000-0 -29728-4 0  9991,2 55924  69.9993 259.8240 0003063 270.7818  89.2990 14.98327731 58518,6950.2,96.107,574.194,569.936,0.0
55924.0,STARLINK-5849,PAYLOAD,2024-04-04 19:46:20,14.98326722,0.0002824,69.9994,259.3195,266.8924,93.1912,3.0892e-05,2.76e-06,0.0,0 STARLINK-5849,1 55924U 23037L   24095.82385265  .00000276  00000-0  30892-4 0  9990,2 55924  69.9994 259.3195 0002824 266.8924  93.1912 14.98326722 58541,6950.203,96.107,574.031,570.105,0.0
55924.0,STARLINK-5849,PAYLOAD,2024-04-05 13:23:49,14.98330787,0.0003116,69.9993,257.4676,268.2642,91.816,1.3212e-05,6.5e-07,0.0,0 STARLINK-5849,1 55924U 23037L   24096.55820915  .00000065  00000-0  13212-4 0  9990,2 55924  69.9993 257.4676 0003116 268.2642  91.8160 14.98330787 58659,6950.19,96.107,574.221,569.89,0.0
55924.0,STARLINK-5849,PAYLOAD,2024-04-05 19:48:21,14.98334559,0.0003019,69.9994,256.7945,269.3089,90.7724,2.6371e-05,2.22e-06,0.0,0 STARLINK-5849,1 55924U 23037L   24096.82524606  .00000222  00000-0  26371-4 0  9993,2 55924  69.9994 256.7945 0003019 269.3089  90.7724 14.98334559 59038,6950.179,96.107,574.142,569.946,0.0
55924.0,STARLINK-5849,PAYLOAD,2024-04-06 10:13:34,14.9832971,0.0002902,69.9999,255.2793,269.9613,90.1213,2.9936e-05,2.64e-06,0.0,0 STARLINK-5849,1 55924U 23037L   24097.42608847  .00000264  00000-0  29936-4 0  9996,2 55924  69.9999 255.2793 0002902 269.9613  90.1213 14.98329710 58788,6950.194,96.107,574.076,570.042,0.0
55924.0,STARLINK-5849,PAYLOAD,2024-04-06 19:50:22,14.98326424,0.0002898,70.0001,254.2696,266.362,93.7208,9.6623e-06,2.2e-07,0.0,0 STARLINK-5849,1 55924U 23037L   24097.82665088  .00000022  00000-0  96623-5 0  9990,2 55924  70.0001 254.2696 0002898 266.3620  93.7208 14.98326424 59186,6950.204,96.107,574.083,570.055,0.0
55924.0,STARLINK-5849,PAYLOAD,2024-04-07 10:15:36,14.98315549,0.0002857,69.9997,252.7545,266.5455,93.5377,-0.00019051,-2.364e-05,0.0,0 STARLINK-5849,1 55924U 23037L   24098.42750660 -.00002364  00000-0 -19051-3 0  9999,2 55924  69.9997 252.7545 0002857 266.5455  93.5377 14.98315549 59277,6950.238,96.108,574.088,570.117,0.0
55924.0,STARLINK-5849,PAYLOAD,2024-04-07 16:40:09,14.98312911,0.0002994,69.9988,252.0806,270.7334,89.3482,-0.00019715,-2.444e-05,0.0,0 STARLINK-5849,1 55924U 23037L   24098.69455075 -.00002444  00000-0 -19715-3 0  9996,2 55924  69.9988 252.0806 0002994 270.7334  89.3482 14.98312911 58971,6950.246,96.108,574.192,570.03,0.0
55924.0,STARLINK-5849,PAYLOAD,2024-04-08 03:53:03,14.98402209,0.0002879,70.0037,250.9023,257.4779,102.6059,-0.0016551,-0.00019822,0.0,0 STARLINK-5849,1 55924U 23037L   24099.16184851 -.00019822  00000-0 -16551-2 0  9992,2 55924  70.0037 250.9023 0002879 257.4779 102.6059 14.98402209 59389,6949.97,96.102,573.835,569.834,0.0
55924.0,STARLINK-5849,PAYLOAD,2024-04-08 10:17:37,14.98325146,0.0003247,69.9976,250.2295,269.0044,91.0743,2.0335e-05,1.5e-06,0.0,0 STARLINK-5849,1 55924U 23037L   24099.42890232  .00000150  00000-0  20335-4 0  9997,2 55924  69.9976 250.2295 0003247 269.0044  91.0743 14.98325146 59426,6950.208,96.107,574.33,569.816,0.0
55924.0,STARLINK-5849,PAYLOAD,2024-04-08 16:42:09,14.98331527,0.000327,69.9999,249.5557,268.4958,91.5827,7.496e-05,8.02e-06,0.0,0 STARLINK-5849,1 55924U 23037L   24099.69593752  .00000802  00000-0  74960-4 0  9990,2 55924  69.9999 249.5557 0003270 268.4958  91.5827 14.98331527 59468,6950.188,96.107,574.326,569.78,0.0
55924.0,STARLINK-5849,PAYLOAD,2024-04-09 10:19:37,14.98329866,0.0003304,69.9992,247.7041,269.0249,91.0531,0.00032002,3.727e-05,0.0,0 STARLINK-5849,1 55924U 23037L   24100.43029108  .00003727  00000-0  32002-3 0  9993,2 55924  69.9992 247.7041 0003304 269.0249  91.0531 14.98329866 59232,6950.193,96.107,574.355,569.762,0.0
55924.0,STARLINK-5849,PAYLOAD,2024-04-09 16:44:08,14.98336925,0.0003482,70.0028,247.0317,270.215,89.861,0.00031901,3.716e-05,0.0,0 STARLINK-5849,1 55924U 23037L   24100.69732626  .00003716  00000-0  31901-3 0  9992,2 55924  70.0028 247.0317 0003482 270.2150  89.8610 14.98336925 59615,6950.171,96.107,574.457,569.616,0.0
55924.0,STARLINK-5849,PAYLOAD,2024-04-10 10:21:38,14.9832458,0.0002437,70.0068,245.1849,266.3326,93.7554,0.00021612,2.486e-05,0.0,0 STARLINK-5849,1 55924U 23037L   24101.43169600  .00002486  00000-0  21612-3 0  9992,2 55924  70.0068 245.1849 0002437 266.3326  93.7554 14.98324580 59725,6950.21,96.107,573.768,570.381,0.0
55924.0,STARLINK-5849,PAYLOAD,2024-04-10 19:58:26,14.98333825,0.0002842,70.0011,244.172,262.7339,97.3497,-7.5469e-05,-9.93e-06,0.0,0 STARLINK-5849,1 55924U 23037L   24101.83225504 -.00000993  00000-0 -75469-4 0  9995,2 55924  70.0011 244.1720 0002842 262.7339  97.3497 14.98333825 59441,6950.181,96.107,574.021,570.071,0.0
55924.0,STARLINK-5849,PAYLOAD,2024-04-11 11:59:46,14.98343873,0.0002818,70.0008,242.4874,266.8434,93.2403,-0.00010617,-1.36e-05,0.0,0 STARLINK-5849,1 55924U 23037L   24102.49984572 -.00001360  00000-0 -10617-3 0  9997,2 55924  70.0008 242.4874 0002818 266.8434  93.2403 14.98343873 59886,6950.15,96.106,573.974,570.056,0.0
55924.0,STARLINK-5849,PAYLOAD,2024-04-11 15:12:02,14.98343047,0.0002819,70.0003,242.1505,267.1321,92.9515,-0.00011194,-1.429e-05,0.0,0 STARLINK-5849,1 55924U 23037L   24102.63336526 -.00001429  00000-0 -11194-3 0  9990,2 55924  70.0003 242.1505 0002819 267.1321  92.9515 14.98343047 59567,6950.153,96.106,573.977,570.058,0.0
55924.0,STARLINK-5849,PAYLOAD,2024-04-11 16:48:10,14.98342462,0.0002838,70.0004,241.9822,266.949,93.1344,-0.00011427,-1.457e-05,0.0,0 STARLINK-5849,1 55924U 23037L   24102.70012519 -.00001457  00000-0 -11427-3 0  9991,2 55924  70.0004 241.9822 0002838 266.9490  93.1344 14.98342462 59576,6950.154,96.106,573.992,570.047,0.0
55924.0,STARLINK-5849,PAYLOAD,2024-04-12 12:01:47,14.98326714,0.0002933,70.0002,239.9625,270.0863,89.996,-5.6527e-06,-1.6e-06,0.0,0 STARLINK-5849,1 55924U 23037L   24103.50124895 -.00000160  00000-0 -56527-5 0  9993,2 55924  70.0002 239.9625 0002933 270.0863  89.9960 14.98326714 60030,6950.203,96.107,574.107,570.03,0.0
55924.0,STARLINK-5849,PAYLOAD,2024-04-12 13:37:55,14.98326709,0.0002934,70.0003,239.7942,270.0818,90.0005,-6.0017e-06,-1.65e-06,0.0,0 STARLINK-5849,1 55924U 23037L   24103.56800905 -.00000165  00000-0 -60017-5 0  9996,2 55924  70.0003 239.7942 0002934 270.0818  90.0005 14.98326709 59701,6950.203,96.107,574.107,570.029,0.0
